{
"type": "FeatureCollection",
"name": "kloakoplande",
"crs": { "type": "name", "properties": { "name": "urn:ogc:def:crs:OGC:1.3:CRS84" } },
"features": [
{"type":"Feature","properties":{"navn1201":"VL009","temanavn":"Kloakoplande","status":"Vedtaget"},"geometry":{"type":"Polygon","coordinates":[[[9.313002511124973,55.912974202774073],[9.313312973750001,55.913284208849227],[9.313385261775993,55.913380435310096],[9.313498490606973,55.91397046965745],[9.313683585652397,55.91392992477742],[9.31388120771704,55.914172648580859],[9.313626009376577,55.914288937124383],[9.313824910125499,55.915145341413108],[9.313792072636442,55.915378139662756],[9.314946761258636,55.915205014636939],[9.314695277369131,55.913982872348413],[9.314521921810032,55.913813406468165],[9.314409249526941,55.913768498960479],[9.314292344315481,55.913615600985914],[9.314264960120678,55.913315567773168],[9.314254453118641,55.913183513277787],[9.314164139863264,55.913054447749545],[9.313905757966587,55.913033092921332],[9.31364586055801,55.912784327984411],[9.313002511124973,55.912974202774073]]]}},
{"type":"Feature","properties":{"navn1201":"VL008","temanavn":"Kloakoplande","status":"Vedtaget"},"geometry":{"type":"Polygon","coordinates":[[[9.315834768800583,55.91501603023292],[9.315769122220582,55.914478259384843],[9.315657798147207,55.913930182743997],[9.315365614299427,55.913844943531892],[9.314843488594844,55.912431212265183],[9.31364586055801,55.912784327984411],[9.313905757966587,55.913033092921332],[9.314164139863264,55.913054447749545],[9.314254453118641,55.913183513277787],[9.314264960120678,55.913315567773168],[9.314292344315481,55.913615600985914],[9.314409249526941,55.913768498960479],[9.314521921810032,55.913813406468165],[9.314695277369131,55.913982872348413],[9.314946761258636,55.915205014636939],[9.31586019109259,55.915132142651416],[9.315834768800583,55.91501603023292]]]}},
{"type":"Feature","properties":{"navn1201":"VL019","temanavn":"Kloakoplande","status":"Vedtaget"},"geometry":{"type":"Polygon","coordinates":[[[9.31586019109259,55.915132142651416],[9.31690581245303,55.915025409343635],[9.31643501078722,55.913302464715223],[9.316128870643976,55.912189724434491],[9.316133061195661,55.912036247773557],[9.314843488594844,55.912431212265183],[9.315365614299427,55.913844943531892],[9.315657798147207,55.913930182743997],[9.315769122220582,55.914478259384843],[9.315834768800583,55.91501603023292],[9.31586019109259,55.915132142651416]]]}},
{"type":"Feature","properties":{"navn1201":"VL006","temanavn":"Kloakoplande","status":"Vedtaget"},"geometry":{"type":"Polygon","coordinates":[[[9.319527988067636,55.91379414300954],[9.319205938978307,55.913521380980903],[9.318770382240228,55.912185252909261],[9.316683960999177,55.911891430036675],[9.316133061195661,55.912036247773557],[9.316128870643976,55.912189724434491],[9.31643501078722,55.913302464715223],[9.316693752427961,55.913328305877911],[9.317248480479631,55.913297676766781],[9.31733218161267,55.913360177318772],[9.317669476230765,55.914618842338079],[9.317810989849423,55.91482477568065],[9.318599314428507,55.914578703364292],[9.320028445404159,55.913913963258942],[9.319527988067636,55.91379414300954]]]}},
{"type":"Feature","properties":{"navn1201":"VL005","temanavn":"Kloakoplande","status":"Vedtaget"},"geometry":{"type":"Polygon","coordinates":[[[9.32004086506076,55.913498908159646],[9.319699146781566,55.912313489541965],[9.318770382240228,55.912185252909261],[9.319205938978307,55.913521380980903],[9.319527988067636,55.91379414300954],[9.320028445404159,55.913913963258942],[9.320361868569238,55.913644171811036],[9.32004086506076,55.913498908159646]]]}},
{"type":"Feature","properties":{"navn1201":"VL004","temanavn":"Kloakoplande","status":"Vedtaget"},"geometry":{"type":"Polygon","coordinates":[[[9.320687028278208,55.912664486285038],[9.320648574932088,55.91244418124721],[9.319699146781566,55.912313489541965],[9.32004086506076,55.913498908159646],[9.320361868569238,55.913644171811036],[9.320457406733468,55.913569975737531],[9.320882233198596,55.9133461285642],[9.320687028278208,55.912664486285038]]]}},
{"type":"Feature","properties":{"navn1201":"VL003","temanavn":"Kloakoplande","status":"Vedtaget"},"geometry":{"type":"Polygon","coordinates":[[[9.320882233198596,55.9133461285642],[9.321454758603526,55.913088559749383],[9.321983116099526,55.912965431340467],[9.322241364065004,55.912970147079477],[9.322567673583341,55.912925445614611],[9.322801376412752,55.912844955632927],[9.322897382050019,55.912750809433071],[9.320648093543589,55.912444002827989],[9.320686706835685,55.912664307415291],[9.320882233198596,55.9133461285642]]]}},
{"type":"Feature","properties":{"navn1201":"VL021","temanavn":"Kloakoplande","status":"Vedtaget"},"geometry":{"type":"Polygon","coordinates":[[[9.322794849716315,55.911751213290124],[9.322905223991782,55.911884892269725],[9.322914777593789,55.911879476127957],[9.323475536000062,55.911749966721651],[9.323834593923106,55.911662676186076],[9.323929761109337,55.911641310914334],[9.324168200292775,55.91163124925432],[9.324396172330417,55.911670453195093],[9.324573190696629,55.911776460620466],[9.324709429180123,55.911826597958935],[9.324889425298485,55.911829357983414],[9.324983033940249,55.911812937822411],[9.32518739411832,55.911764058479271],[9.326456151596417,55.911401027710248],[9.326207584579914,55.911061958509634],[9.324811956399833,55.91138434921028],[9.324336957716186,55.910747656735268],[9.322389422357906,55.911205440267771],[9.322794849716315,55.911751213290124]]]}},
{"type":"Feature","properties":{"navn1201":"VL017","temanavn":"Kloakoplande","status":"Vedtaget"},"geometry":{"type":"Polygon","coordinates":[[[9.32323832868501,55.912331298181826],[9.32407450455023,55.912135920841934],[9.324567957527465,55.912777866803943],[9.325572733950162,55.912503684623026],[9.325644889404753,55.912427928969834],[9.326015934095613,55.912320024447389],[9.326933068383035,55.912051454150109],[9.326456151596417,55.911401027710248],[9.32518739411832,55.911764058479271],[9.324983033940249,55.911812937822411],[9.324889425298485,55.911829357983414],[9.324709429180123,55.911826597958935],[9.324573190696629,55.911776460620466],[9.324396172330417,55.911670453195093],[9.324168200292775,55.91163124925432],[9.323929761109337,55.911641310914334],[9.323475536000062,55.911749966721651],[9.322914777593789,55.911879476127957],[9.32323832868501,55.912331298181826]]]}},
{"type":"Feature","properties":{"navn1201":"VL002","temanavn":"Kloakoplande","status":"Vedtaget"},"geometry":{"type":"Polygon","coordinates":[[[9.327733970192313,55.911849586403285],[9.327483355342219,55.912825678436519],[9.328767023580506,55.912805277068756],[9.328800751656225,55.913009958068066],[9.329270463162363,55.913048597352102],[9.329347633483151,55.913300962970794],[9.329281145610658,55.913497375860075],[9.329361758445081,55.913495183635249],[9.329842205268861,55.913572697621142],[9.331225356176898,55.913734042900188],[9.331387750154875,55.913678976531671],[9.331429979475283,55.913603208161227],[9.331336430383601,55.912970188041506],[9.331473713124511,55.912728657842713],[9.332020360223652,55.912709484874057],[9.331923240527688,55.91242716430849],[9.332313676269155,55.912400054733666],[9.332194000698889,55.91202443972405],[9.33215444812615,55.912019963951657],[9.333014882536538,55.911301166424479],[9.333259389005709,55.911327550365847],[9.333483272590071,55.91128094056598],[9.332832062548231,55.911136603709686],[9.332354017422544,55.911131335338403],[9.331201054330228,55.91133355139727],[9.330347495768358,55.911792557707933],[9.329610066574277,55.911893908765414],[9.328834797389126,55.911815474108195],[9.327733970192313,55.911849586403285]]]}},
{"type":"Feature","properties":{"navn1201":"VL013","temanavn":"Kloakoplande","status":"Vedtaget"},"geometry":{"type":"Polygon","coordinates":[[[9.33419386546144,55.91440449185346],[9.334172021394476,55.914189896434429],[9.334510009408756,55.91418268945521],[9.334452738293383,55.912733453923799],[9.333298722366871,55.913134263699519],[9.333286563725951,55.913246161453834],[9.33329357661534,55.913634749267295],[9.333336288811733,55.914156489907036],[9.333761849077352,55.914249411824038],[9.33419386546144,55.91440449185346]]]}},
{"type":"Feature","properties":{"navn1201":"VL018","temanavn":"Kloakoplande","status":"Vedtaget"},"geometry":{"type":"Polygon","coordinates":[[[9.327057300373104,55.914608920225746],[9.328720567434379,55.914537643504666],[9.328723149759266,55.914218844377203],[9.327143175324348,55.914205349952219],[9.327057300373104,55.914608920225746]]]}}
]
}
